[{"OBJECT_NAME":"POPACS 3","OBJECT_ID":"2013-055F","EPOCH":"2026-03-08T18:51:12.850560","MEAN_MOTION":14.53938339,"ECCENTRICITY":0.05603673,"INCLINATION":81.0053,"RA_OF_ASC_NODE":337.8959,"ARG_OF_PERICENTER":15.4614,"MEAN_ANOMALY":346.2932,"EPHEMERIS_TYPE":0,"CLASSIFICATION_TYPE":"U","NORAD_CAT_ID":39270,"ELEMENT_SET_NO":999,"REV_AT_EPOCH":62395,"BSTAR":0.00046789991,"MEAN_MOTION_DOT":0.00019405,"MEAN_MOTION_DDOT":0},{"OBJECT_NAME":"DMSP 5D-2 F11 DEB","OBJECT_ID":"1991-082BQ","EPOCH":"2026-03-09T10:29:56.254560","MEAN_MOTION":14.42469156,"ECCENTRICITY":0.00602141,"INCLINATION":98.9132,"RA_OF_ASC_NODE":143.3925,"ARG_OF_PERICENTER":309.4973,"MEAN_ANOMALY":111.4543,"EPHEMERIS_TYPE":0,"CLASSIFICATION_TYPE":"U","NORAD_CAT_ID":29069,"ELEMENT_SET_NO":999,"REV_AT_EPOCH":10239,"BSTAR":0.0019372957,"MEAN_MOTION_DOT":6.514e-5,"MEAN_MOTION_DDOT":0}]
